SL-16 R/B               
1 19120U 88039B   23333.16933461  .00000075  00000+0  58382-4 0  9999
2 19120  71.0160  26.4595 0021837 181.8659 178.2388 14.19359249840657
COSMOS 1953             
1 19210U 88050A   23333.26878307  .00008228  00000+0  47442-3 0  9992
2 19210  82.5169 263.8126 0016950 139.7240 220.5250 15.12117118932605
SL-8 R/B                
1 19257U 88053B   23332.82982387  .00000546  00000+0  18888-3 0  9998
2 19257  74.0473 204.6951 0021284 233.4876 199.2976 14.37990518856984
COSMOS 1975             
1 19573U 88093A   23333.19121201  .00007584  00000+0  44816-3 0  9993
2 19573  82.5278 220.9689 0014800 184.2329 175.8779 15.11255816914314
SL-14 R/B               
1 19574U 88093B   23332.82794785  .00001167  00000+0  13661-3 0  9991
2 19574  82.5308 102.0018 0019857 268.1128 244.9955 14.84124548877588
SL-16 R/B               
1 19650U 88102B   23333.47111398  .00000343  00000+0  19824-3 0  9994
2 19650  70.9991 100.1612 0015027 204.8213 155.2189 14.15925668809504
INTERCOSMOS 24          
1 20261U 89080A   23332.90253783  .00001605  00000+0  46884-3 0  9990
2 20261  82.6042 284.7176 1198324  60.0759 311.3915 12.57376816562164
SL-14 R/B               
1 20262U 89080C   23332.80031503  .00000795  00000+0  24350-3 0  9997
2 20262  82.5948 347.0550 1233398 285.0126  61.7916 12.49528785556217
DELTA 1 R/B             
1 20323U 89089B   23333.50559625  .00001047  00000+0  27600-3 0  9994
2 20323  97.0920 294.6680 0069592 223.6529 135.9151 14.49153196795812
ARIANE 40 R/B           
1 20443U 90005H   23333.19041958  .00000711  00000+0  24585-3 0  9993
2 20443  98.4215  37.7919 0010522 175.8235 184.3043 14.38703290773457
DELTA 2 R/B(1)          
1 20453U 90008B   23333.41579057  .00011361  00000+0  48955-3 0  9998
2 20453  35.6207 333.2518 0223775  99.2577 263.3522 15.02112609799251
COSMOS 2058             
1 20465U 90010A   23332.86224688  .00004495  00000+0  34358-3 0  9991
2 20465  82.4849 139.5040 0012873 271.3550  88.6200 15.01663412816996
SL-14 R/B               
1 20466U 90010B   23333.44407158  .00000934  00000+0  11409-3 0  9998
2 20466  82.5012 327.2323 0021045 153.2410 206.9895 14.82132791826359
SL-14 R/B               
1 20511U 90018B   23332.95641600  .00001055  00000+0  13384-3 0  9993
2 20511  82.5216 279.6985 0015876 309.6717 115.1463 14.80761866799431
HST                     
1 20580U 90037B   23332.92368883  .00008510  00000+0  43346-3 0  9990
2 20580  28.4687 250.5783 0002667   6.5721  61.1506 15.15020902646453
SL-16 R/B               
1 20625U 90046B   23332.94838409  .00000321  00000+0  19081-3 0  9999
2 20625  70.9987 244.4054 0012802 135.2337 224.9820 14.14786246730748
COSMOS 2084             
1 20663U 90055A   23332.91428347  .00004675  00000+0  36179-3 0  9997
2 20663  62.7921 274.6393 0127943 101.4110 260.1388 14.96604293811422
SL-6 R/B(2)             
1 20666U 90055D   23332.85617312  .00004044  00000+0  32898-3 0  9999
2 20666  62.7828 188.4985 0111062 123.2892 237.8903 14.96502556813384
SL-8 R/B                
1 20775U 90078B   23333.17484998  .00014462  00000+0  61437-3 0  9999
2 20775  82.9200 258.0539 0495544 216.9594 139.6504 14.53670099687051
SL-8 R/B                
1 21088U 91006B   23332.82113830  .00000161  00000+0  14703-3 0  9999
2 21088  82.9438  68.8130 0022181 201.9563 274.0759 13.77295424649558
OKEAN-3                 
1 21397U 91039A   23332.76116262  .00004632  00000+0  40375-3 0  9994
2 21397  82.5224  57.8231 0015389 268.0520  91.8940 14.96591485740253
COSMOS 2151             
1 21422U 91042A   23333.00944302  .00003054  00000+0  27888-3 0  9990
2 21422  82.4980 162.4741 0013554 347.4340  12.6541 14.94690333759879
SL-14 R/B               
1 21423U 91042B   23333.37610105  .00001009  00000+0  12850-3 0  9993
2 21423  82.4927 278.9780 0019081  90.7724 269.5676 14.80490041751055
ERS-1                   
1 21574U 91050A   23332.90300872  .00000533  00000+0  18915-3 0  9993
2 21574  98.7611 315.2876 0033154 146.6254 213.7031 14.38305630696112
ARIANE 40 R/B           
1 21610U 91050F   23333.16645954  .00000811  00000+0  26225-3 0  9998
2 21610  98.3188  35.6336 0004203  77.7443 282.4217 14.41593134699405
INTERCOSMOS 25          
1 21819U 91086A   23333.36535089  .00002606  00000+0  51219-3 0  9992
2 21819  82.6064  91.0315 1504932 103.4792 273.7936 12.07962575396164
SL-8 R/B                
1 21876U 92008B   23332.64347263  .00000057  00000+0  43339-4 0  9998
2 21876  82.9260 166.4574 0033689 299.4852 125.6287 13.75782162595006
SL-8 R/B                
1 21938U 92020B   23333.16232101  .00000130  00000+0  11935-3 0  9991
2 21938  82.9326  51.2883 0030485  98.5200 326.5221 13.75384962587128
COSMOS 2219             
1 22219U 92076A   23333.41360978  .00000386  00000+0  22851-3 0  9999
2 22219  71.0608 315.4582 0017292  23.6432 336.5482 14.13809252601204
SL-16 R/B               
1 22220U 92076B   23333.52860862  .00000164  00000+0  10620-3 0  9995
2 22220  70.9984 138.8687 0015214 280.1798 138.4644 14.16603601604442
COSMOS 2221             
1 22236U 92080A   23333.48539261  .00003104  00000+0  31400-3 0  9994
2 22236  82.5063 351.7093 0017552  95.4426 264.8796 14.90588652677773
SL-16 R/B               
1 22285U 92093B   23333.17026102  .00000029  00000+0  39548-4 0  9998
2 22285  71.0217 309.5360 0002953 169.4643 190.6542 14.15208952595820
COSMOS 2228             
1 22286U 92094A   23333.01512162  .00003830  00000+0  38390-3 0  9995
2 22286  82.5178 309.8313 0019240 207.1582 152.8633 14.90990889672933
SL-16 R/B               
1 22566U 93016B   23332.85068824  .00000432  00000+0  24735-3 0  9996
2 22566  71.0062 161.9984 0009412 160.6745 199.4737 14.15088525584480
COSMOS 2242             
1 22626U 93024A   23333.47842063  .00003249  00000+0  32774-3 0  9997
2 22626  82.5198 338.1101 0017363 206.7275 153.3051 14.90719667656622
SL-16 R/B               
1 22803U 93059B   23332.39722956  .00000175  00000+0  11087-3 0  9999
2 22803  70.9898 325.9378 0015863  31.6040 328.6032 14.16972438561621
ARIANE 40 R/B           
1 22830U 93061H   23332.76974963  .00000595  00000+0  23842-3 0  9998
2 22830  98.5987  37.5478 0010309 217.1453 142.9018 14.31921225575005
COSMOS 2278             
1 23087U 94023A   23332.86130909  .00000485  00000+0  27972-3 0  9993
2 23087  71.0529 114.9755 0010291 228.2530 131.7713 14.14021027527204
SL-16 R/B               
1 23088U 94023B   23333.18137155  .00000082  00000+0  67115-4 0  9997
2 23088  71.0003  16.8637 0001861 163.4080 196.7104 14.14795929528748
SL-16 R/B               
1 23343U 94074B   23332.71719104  .00001051  00000+0  15351-3 0  9996
2 23343  97.8183  17.0346 0007834  52.4320  61.0226 14.77723842564302
SL-16 R/B               
1 23405U 94077B   23332.92020520 -.00000182  00000+0 -68825-4 0  9999
2 23405  70.9825 302.0855 0004055 309.9546  50.1220 14.15346372498535
ERS-2                   
1 23560U 95021A   23332.95839702  .00128479  00000+0  13613-2 0  9995
2 23560  98.5262 327.2035 0005068  91.0018 269.1818 15.63683012534710
ARIANE 40+ R/B          
1 23561U 95021B   23332.80076703  .00000714  00000+0  24755-3 0  9995
2 23561  98.5555  35.2333 0007978 108.5025   3.4478 14.38619358499586
SL-16 R/B               
1 23705U 95058B   23332.88701202  .00000287  00000+0  17195-3 0  9997
2 23705  71.0211 126.3210 0014501 302.0228  57.9485 14.15271395450155
SL-16 R/B               
1 24298U 96051B   23332.89146930 -.00000060  00000+0 -58230-5 0  9999
2 24298  70.8195 133.7450 0018155 280.4815  79.4259 14.12513775404198
ORBVIEW 2 (SEASTAR)     
1 24883U 97037A   23333.39084361  .00000821  00000+0  30873-3 0  9993
2 24883  98.7475 105.5946 0002219  14.8660 345.2589 14.34264321389518
SL-16 R/B               
1 25400U 98043G   23332.84395061  .00000212  00000+0  10797-3 0  9995
2 25400  98.7237 269.6257 0008794 270.0163  90.0009 14.25671122320445
SL-16 R/B               
1 25407U 98045B   23332.87623113 -.00000134  00000+0 -43683-4 0  9995
2 25407  71.0099 130.5485 0009035 226.7820 133.2549 14.15953590309344
ISS (ZARYA)             
1 25544U 98067A   23333.58785172  .00023126  00000+0  41302-3 0  9993
2 25544  51.6431 229.3060 0000955 349.0691  81.3873 15.49930125427445
CZ-4B R/B               
1 25732U 99025C   23332.74023061  .00000234  00000+0  13500-3 0  9990
2 25732  98.7827  15.4180 0036782 211.8322 256.8416 14.17890425270255
OKEAN-O                 
1 25860U 99039A   23332.69914040  .00001654  00000+0  23700-3 0  9997
2 25860  98.0674  20.1523 0001671 107.2263 252.9131 14.77915857311390
SL-16 R/B               
1 25861U 99039B   23333.07713237  .00001211  00000+0  16829-3 0  9999
2 25861  98.1184  12.2893 0016569  69.7159 290.5831 14.79659341313929
DELTA 2 R/B             
1 25876U 99041E   23332.54191111  .00001475  00000+0  28537-3 0  9991
2 25876  51.7642  13.8251 0521950  60.7461 304.4614 14.07151317245655
HELIOS 1B               
1 25977U 99064A   23333.52197287  .00001867  00000+0  23230-3 0  9997
2 25977  98.2692 193.1967 0000526 155.1249 204.9989 14.83790628293153
TERRA                   
1 25994U 99068A   23333.50472407  .00001157  00000+0  25344-3 0  9998
2 25994  98.0765  37.6574 0000553 263.0871 154.0054 14.59461546273891
SL-16 R/B               
1 26070U 00006B   23333.52472949  .00000414  00000+0  23575-3 0  9990
2 26070  71.0039  45.1911 0016553 358.9762   1.1324 14.15585708230907
TITAN 4B R/B            
1 26474U 00047B   23333.04036210  .00004367  00000+0  34739-3 0  9992
2 26474  67.9924 202.5251 0055552 252.2230 107.2848 15.00177771267851
ENVISAT                 
1 27386U 02009A   23333.50325126  .00000349  00000+0  12798-3 0  9990
2 27386  98.2551 296.9107 0001316  84.4454  28.1237 14.38456231139724
IDEFIX & ARIANE 42P R/B 
1 27422U 02021B   23332.84633281  .00000711  00000+0  29279-3 0  9990
2 27422  98.5082 269.8153 0013050 114.3835 245.8711 14.29873471125090
AQUA                    
1 27424U 02022A   23333.50273233  .00002268  00000+0  49714-3 0  9999
2 27424  98.3070 277.5318 0001792  59.1037  32.9451 14.58611359147453
